149P/Mueller,e,34.2695,143.6946,30.0149,4.135270,0.1172056,0.32446266,337.3291,06/05.0/2026,2000,g  8.0,8.0
# From MPC191606
150P/LONEOS,e,18.5460,272.0509,246.1359,3.872456,0.1293375,0.54942654,105.3140,06/05.0/2026,2000,g 13.5,4.0
# From MPC191606
151P/Helin,e,4.7217,143.0491,216.1791,5.769326,0.0711240,0.57205108,276.7530,06/05.0/2026,2000,g 10.0,6.0
# From MPC191606
152P/Helin-Lawrence,e,9.8795,91.7767,164.3577,4.486310,0.1037218,0.30639813,166.5300,06/05.0/2026,2000,g 11.5,4.0
# From MPC191606
154P/Brewington,e,17.6410,342.9952,47.8962,4.791779,0.0939634,0.67607787,67.8399,06/05.0/2026,2000,g  2.5,12.0
# From MPC191607
156P/Russell-LINEAR,e,17.2550,35.3184,0.5335,3.462675,0.1529631,0.61464593,309.5781,06/05.0/2026,2000,g 15.5,2.0
# From MPC191607
157P/Tritton,e,12.4249,287.4961,155.2029,3.548562,0.1474435,0.55658283,201.0636,06/05.0/2026,2000,g 10.0,4.0
# From MPEC 2022-VC5
157P-B/Tritton,e,12.4278,153.8604,287.2483,3.102749,0.1803367,0.49975411,246.2082,06/05.0/2026,2000,g 15.7,4.0
# From MPC191607
158P/Kowal-LINEAR,e,7.5059,124.1355,235.5753,5.750956,0.0714651,0.11295919,93.8132,06/05.0/2026,2000,g  9.0,4.0
# From MPC191607
159P/LONEOS,e,23.4718,54.9332,4.7654,5.857059,0.0695320,0.38204625,203.8672,06/05.0/2026,2000,g 10.0,4.0
# From MPC191607
160P/LINEAR,e,15.5888,333.3103,12.7739,3.781150,0.1340504,0.52486157,318.9510,06/05.0/2026,2000,g 15.5,2.0
# From MPC191607
161P/Hartley-IRAS,e,95.7907,1.4755,47.0699,7.722091,0.0459306,0.83616565,351.9386,06/05.0/2026,2000,g  8.5,6.0
# From MPC191607
162P/SidingSpring,e,27.5525,30.8672,357.2527,3.090964,0.1813691,0.58281103,3.2924,06/05.0/2026,2000,g 12.0,4.0
# From MPC191607
163P/NEAT,e,12.7244,102.0663,349.6938,3.759212,0.1352256,0.45342826,336.7366,06/05.0/2026,2000,g 14.5,4.0
# From MPEC 2026-KB8
164P/Christensen,e,16.2755,88.2600,325.8903,3.650260,0.1413248,0.54135697,52.8125,06/05.0/2026,2000,g 11.0,4.0
# From MPC191608
165P/LINEAR,e,15.9166,0.5826,126.0174,17.81926,0.0131030,0.61957250,124.1828,06/05.0/2026,2000,g 11.5,2.0
# From MPC191608
166P/NEAT,e,15.3816,64.3531,321.9870,13.85662,0.0191081,0.38144814,167.6815,06/05.0/2026,2000,g  5.5,4.0
# From MPC191608
167P/CINEOS,e,19.0724,295.8444,344.1897,16.23727,0.0150638,0.26814707,138.7861,06/05.0/2026,2000,g  9.5,2.0
# From MPC191608
168P/Hergenrother,e,21.5951,355.3777,15.0925,3.585580,0.1451660,0.62101967,1.4090,06/05.0/2026,2000,g 15.5,4.0
# From MPEC 2026-KB8
169P/NEAT,e,11.2848,176.0346,218.1364,2.603690,0.2345957,0.76790080,334.5727,06/05.0/2026,2000,g 16.0,2.0
# From MPC191608
170P/Christensen,e,10.1380,142.6391,224.4625,4.188401,0.1149825,0.30577247,131.9136,06/05.0/2026,2000,g 12.0,4.0
# From MPC194201
171P/Spahr,e,21.9546,101.6920,347.0389,3.551820,0.1472406,0.50273925,37.2588,06/05.0/2026,2000,g 13.5,4.0
# From MPC191608
172P/Yeung,e,11.2209,30.8743,208.8674,4.225577,0.1134684,0.20528664,24.3584,06/05.0/2026,2000,g 13.0,4.0
# From MPC191608
173P/Mueller,e,16.4930,100.3459,29.4019,5.718206,0.0720799,0.26243476,117.4198,06/05.0/2026,2000,g  7.5,4.0
# From MPEC 2026-HH0
175P/Hergenrother,e,4.9295,109.7948,74.6002,3.688101,0.1391554,0.37444085,347.4459,06/05.0/2026,2000,g 14.0,4.0
# From MPC191609
178P/Hug-Bell,e,11.0925,102.7838,297.9641,3.632537,0.1423603,0.48205068,305.6789,06/05.0/2026,2000,g 13.5,4.0
# From MPC194201
179P/Jedicke,e,19.8890,115.5041,297.2609,5.938307,0.0681099,0.30491179,99.8290,06/05.0/2026,2000,g  2.5,8.0
# From MPC191609
180P/NEAT,e,16.8599,84.5460,94.6040,3.867081,0.1296072,0.35418285,137.1860,06/05.0/2026,2000,g 11.0,4.0
# From MPC191609
181P/Shoemaker-Levy,e,17.4663,35.4314,336.2938,3.880185,0.1289512,0.69936428,207.5522,06/05.0/2026,2000,g 11.5,4.0
# From MPC191609
182P/LONEOS,e,16.2295,72.4319,54.2541,2.947886,0.1947323,0.66409957,288.8509,06/05.0/2026,2000,g 18.0,4.0
# From MPC194201
183P/Korlevic-Juric,e,18.7296,3.1652,161.2410,4.725474,0.0959480,0.10393450,316.5300,06/05.0/2026,2000,g 12.5,2.0
# From MPC191609
184P/Lovas,e,4.5681,173.2190,186.5737,3.802291,0.1329340,0.54943372,272.5266,06/05.0/2026,2000,g 13.5,4.0
# From MPC191609
185P/Petriew,e,14.0016,214.1242,181.9239,3.100405,0.1805413,0.69905063,191.1026,06/05.0/2026,2000,g 15.0,4.0
# From MPC191609
186P/Garradd,e,28.7857,325.6132,266.8058,4.876212,0.0915335,0.12200319,253.5525,06/05.0/2026,2000,g  7.5,4.0
# From MPC191610
187P/LINEAR,e,13.6690,109.8468,132.2992,4.542511,0.1018029,0.15676278,297.6266,06/05.0/2026,2000,g  9.0,4.0
# From MPC194201
188P/LINEAR-Mueller,e,10.5262,358.9112,26.8568,4.362440,0.1081708,0.41636605,5.6948,06/05.0/2026,2000,g 11.5,4.0
# From MPC194201
190P/Mueller,e,2.1793,335.3972,50.3878,4.224999,0.1134917,0.52350206,59.9182,06/05.0/2026,2000,g 13.0,4.0
# From MPC191610
191P/McNaught,e,8.8393,98.1794,284.2400,3.641938,0.1418095,0.38473681,269.9549,06/05.0/2026,2000,g 13.0,4.0
# From MPC191610
192P/Shoemaker-Levy,e,24.5761,51.4860,313.0189,6.437672,0.0603408,0.77316798,44.7561,06/05.0/2026,2000,g 15.0,4.0
# From MPC191610
193P/LINEAR-NEAT,e,10.6769,335.1792,8.0719,3.580761,0.1454592,0.39238606,254.1989,06/05.0/2026,2000,g 14.0,4.0
# From MPC191610
194P/LINEAR,e,11.8033,349.4834,128.6857,4.124613,0.1176601,0.56337012,100.1953,06/05.0/2026,2000,g 16.0,4.0
# From MPEC 2026-K60
195P/Hill,e,36.4152,243.0850,250.6967,6.438731,0.0603259,0.31027407,18.2610,06/05.0/2026,2000,g  8.5,4.0
# From MPC191610
196P/Tichy,e,19.2865,24.1246,12.1495,3.807599,0.1326561,0.42704091,174.4979,06/05.0/2026,2000,g 13.5,4.0
# From MPC191611
197P/LINEAR,e,25.1329,66.0426,190.0172,2.913068,0.1982340,0.61656342,253.8692,06/05.0/2026,2000,g 16.5,2.0
# From MPC191611
198P/ODAS,e,1.3395,358.3129,69.2906,3.633312,0.1423148,0.44824991,27.8745,06/05.0/2026,2000,g 12.5,4.0
# From MPC191611
199P/Shoemaker,e,24.9413,92.3387,191.7101,5.868811,0.0693233,0.50409907,71.6200,06/05.0/2026,2000,g 10.0,4.0
# From MPC191611
200P/Larsen,e,12.0942,234.7361,134.4150,4.956021,0.0893315,0.33050896,223.8464,06/05.0/2026,2000,g  9.0,4.0
# From MPC191611
201P/LONEOS,e,5.7331,19.6637,41.6701,3.354321,0.1604342,0.63733542,294.1652,06/05.0/2026,2000,g 14.0,4.0
# From MPC191611
202P/Scotti,e,2.1415,177.2981,274.5627,4.099964,0.1187228,0.25085520,88.8725,06/05.0/2026,2000,g 13.5,4.0
# From MPC191611
203P/Korlevic,e,2.9761,290.2202,154.9907,4.668454,0.0977112,0.31624242,222.7288,06/05.0/2026,2000,g 14.5,2.0
# From MPC191611
204P/LINEAR-NEAT,e,6.5982,108.4721,356.7597,3.584513,0.1452308,0.48825044,188.1238,06/05.0/2026,2000,g 14.0,4.0
# From MPC191611
205P/Giacobini,e,15.3008,179.6238,154.1222,3.543524,0.1477580,0.56724008,237.1995,06/05.0/2026,2000,g 13.0,4.0
# From MPC191612
207P/NEAT,e,10.1959,198.0946,273.0916,3.887496,0.1285876,0.75850127,109.9444,06/05.0/2026,2000,g 16.0,4.0
# From MPC191612
208P/McMillan,e,4.3960,36.0008,311.7632,4.061817,0.1203992,0.37483010,77.9679,06/05.0/2026,2000,g 12.5,4.0
# From MPC191612
209P/LINEAR,e,21.2891,62.7445,152.4756,2.956929,0.1938397,0.67426646,133.8331,06/05.0/2026,2000,g 17.0,2.0
# From MPEC 2026-KB8
210P/Christensen,e,10.2871,93.7971,345.9494,3.159969,0.1754607,0.83402685,34.0882,06/05.0/2026,2000,g 13.5,4.0
# From MPC191612
211P/Hill,e,18.9263,117.1000,4.3907,3.548678,0.1474362,0.34460362,197.2978,06/05.0/2026,2000,g 12.5,4.0
# From MPC191612
212P/NEAT,e,22.1479,97.9725,14.0994,3.904841,0.1277318,0.58671115,98.4530,06/05.0/2026,2000,g 17.0,2.0
# From MPC191612
213P/VanNess,e,10.7866,310.2070,8.3328,3.362782,0.1598292,0.41820298,146.7250,06/05.0/2026,2000,g 10.5,4.0
# From MPEC 2025-GB9
213P-B/Van Ness,e,10.7852,310.2054,8.3436,3.362477,0.1598509,0.41811531,146.7650,06/05.0/2026,2000,g 17.0,4.0
# From MPC191612
214P/LINEAR,e,15.1961,348.2257,190.1177,3.615368,0.1433756,0.48672084,193.1026,06/05.0/2026,2000,g 13.0,4.0
# From MPEC 2026-HI3
215P/NEAT,e,10.5753,56.6845,262.0784,4.337711,0.1090971,0.16484314,261.5675,06/05.0/2026,2000,g 11.0,4.0
# From MPC191612
216P/LINEAR,e,9.0629,359.7570,151.8148,3.860960,0.1299155,0.44919013,114.2936,06/05.0/2026,2000,g 13.0,4.0
# From MPEC 2026-HI3
217P/LINEAR,e,12.8724,125.3707,246.9773,3.945957,0.1257406,0.68973901,47.2676,06/05.0/2026,2000,g 12.0,4.0
# From MPEC 2026-J34
218P/LINEAR,e,2.7265,174.7222,61.3999,3.059380,0.1841849,0.63087134,17.0740,06/05.0/2026,2000,g 16.0,4.0
# From MPC191613
219P/LINEAR,e,11.3876,229.6699,109.3069,3.659706,0.1407780,0.35973015,117.8198,06/05.0/2026,2000,g 11.0,4.0
# From MPEC 2026-KB8
220P/McNaught,e,8.1208,150.0836,180.5640,3.120780,0.1787761,0.50034746,358.3694,06/05.0/2026,2000,g 15.0,4.0
# From MPC191613
221P/LINEAR,e,10.2785,221.0242,47.5314,3.381034,0.1585367,0.52190211,254.0036,06/05.0/2026,2000,g 14.5,4.0
# From MPC191613
223P/Skiff,e,27.0075,346.6853,37.9873,4.158261,0.1162349,0.41602172,311.7749,06/05.0/2026,2000,g 12.0,4.0
# From MPC191613
224P/LINEAR-NEAT,e,13.2960,40.0338,16.8400,3.448203,0.1539270,0.40516006,206.8945,06/05.0/2026,2000,g 15.5,4.0
# From MPC191613
226P/Pigott-LINEAR-Kowalski,e,44.0390,54.0237,341.0390,3.765748,0.1348737,0.52853457,120.1995,06/05.0/2026,2000,g 12.5,4.0
# From MPC191614
227P/Catalina-LINEAR,e,7.5062,36.7762,105.6367,3.438174,0.1546010,0.52783816,126.5365,06/05.0/2026,2000,g 16.5,2.0
# From MPC191614
228P/LINEAR,e,7.9182,30.9489,114.9505,4.159882,0.1161669,0.17783207,264.3421,06/05.0/2026,2000,g 14.5,2.0
# From MPC191614
229P/Gibbs,e,26.1227,157.8019,224.4067,3.930064,0.1265041,0.37897809,57.6423,06/05.0/2026,2000,g 13.0,4.0
# From MPC191614
230P/LINEAR,e,15.4726,106.9245,313.5925,3.455612,0.1534323,0.54512942,236.0264,06/05.0/2026,2000,g 13.0,4.0
# From MPC191614
231P/LINEAR-NEAT,e,12.2793,132.7319,43.1687,4.072047,0.1199458,0.24006274,309.2624,06/05.0/2026,2000,g 14.5,2.0
# From MPC191614
232P/Hill,e,14.6437,55.9831,53.4031,4.468043,0.1043585,0.33623343,272.4573,06/05.0/2026,2000,g 11.5,4.0
# From MPC194202
233P/LaSagra,e,11.2890,74.9133,26.9647,3.027180,0.1871315,0.41309587,27.6871,06/05.0/2026,2000,g 15.0,4.0
# From MPC191614
234P/LINEAR,e,11.5332,179.5486,357.5073,3.799579,0.1330763,0.25755087,78.3891,06/05.0/2026,2000,g 12.0,4.0
# From MPEC 2026-KB8
